<?xml version="1.0" encoding="UTF-8"?>
<kml xmlns="http://www.opengis.net/kml/2.2">
  <Document>
    <name>6 NUMARA</name>
    <description/>
    <Style id="icon-1899-DB4436-nodesc-normal">
      <IconStyle>
        <color>ff3644db</color>
        <scale>1</scale>
        <Icon>
          <href>https://www.gstatic.com/mapspro/images/stock/503-wht-blank_maps.png</href>
        </Icon>
        <hotSpot x="32" xunits="pixels" y="64" yunits="insetPixels"/>
      </IconStyle>
      <LabelStyle>
        <scale>0</scale>
      </LabelStyle>
      <BalloonStyle>
        <text><![CDATA[<h3>$[name]</h3>]]></text>
      </BalloonStyle>
    </Style>
    <Style id="icon-1899-DB4436-nodesc-highlight">
      <IconStyle>
        <color>ff3644db</color>
        <scale>1</scale>
        <Icon>
          <href>https://www.gstatic.com/mapspro/images/stock/503-wht-blank_maps.png</href>
        </Icon>
        <hotSpot x="32" xunits="pixels" y="64" yunits="insetPixels"/>
      </IconStyle>
      <LabelStyle>
        <scale>1</scale>
      </LabelStyle>
      <BalloonStyle>
        <text><![CDATA[<h3>$[name]</h3>]]></text>
      </BalloonStyle>
    </Style>
    <StyleMap id="icon-1899-DB4436-nodesc">
      <Pair>
        <key>normal</key>
        <styleUrl>#icon-1899-DB4436-nodesc-normal</styleUrl>
      </Pair>
      <Pair>
        <key>highlight</key>
        <styleUrl>#icon-1899-DB4436-nodesc-highlight</styleUrl>
      </Pair>
    </StyleMap>
    <Style id="line-1267FF-5000-nodesc-normal">
      <LineStyle>
        <color>ffff6712</color>
        <width>5</width>
      </LineStyle>
      <BalloonStyle>
        <text><![CDATA[<h3>$[name]</h3>]]></text>
      </BalloonStyle>
    </Style>
    <Style id="line-1267FF-5000-nodesc-highlight">
      <LineStyle>
        <color>ffff6712</color>
        <width>7.5</width>
      </LineStyle>
      <BalloonStyle>
        <text><![CDATA[<h3>$[name]</h3>]]></text>
      </BalloonStyle>
    </Style>
    <StyleMap id="line-1267FF-5000-nodesc">
      <Pair>
        <key>normal</key>
        <styleUrl>#line-1267FF-5000-nodesc-normal</styleUrl>
      </Pair>
      <Pair>
        <key>highlight</key>
        <styleUrl>#line-1267FF-5000-nodesc-highlight</styleUrl>
      </Pair>
    </StyleMap>
    <Folder>
      <name>Adsız katman</name>
    </Folder>
    <Folder>
      <name>Nokta 1 ile Koza, Başak Sk. No:11, 05100 Amasya Merkez/Amasya, Türkiye arası yol tarifi</name>
      <Placemark>
        <name>Nokta 1 ile Koza, Başak Sk. No:11, 05100 Amasya Merkez/Amasya, Türkiye arası yol tarifi</name>
        <styleUrl>#line-1267FF-5000-nodesc</styleUrl>
        <LineString>
          <tessellate>1</tessellate>
          <coordinates>
            35.80856,40.65542,0
            35.80856,40.6554,0
            35.80857,40.65533,0
            35.80863,40.655,0
            35.80867,40.65479,0
            35.80876,40.65455,0
            35.80883,40.65422,0
            35.80889,40.65393,0
            35.80896,40.65366,0
            35.80897,40.6536,0
            35.80898,40.65356,0
            35.80906,40.65358,0
            35.80945,40.65364,0
            35.81001,40.65373,0
            35.81015,40.65376,0
            35.81038,40.65379,0
            35.81039,40.6538,0
            35.81061,40.65383,0
            35.81084,40.65387,0
            35.8113,40.6539,0
            35.81177,40.6539,0
            35.81234,40.6539,0
            35.81267,40.65391,0
            35.81269,40.65335,0
            35.8127,40.65319,0
            35.81272,40.6529,0
            35.81272,40.65283,0
            35.81275,40.65241,0
            35.81274,40.6523,0
            35.81282,40.65171,0
            35.81285,40.65155,0
            35.81286,40.65131,0
            35.8129,40.65095,0
            35.81291,40.65088,0
            35.81295,40.65056,0
            35.81308,40.64997,0
            35.81314,40.64917,0
            35.81314,40.64893,0
            35.81315,40.64875,0
            35.81316,40.64857,0
            35.81318,40.64839,0
            35.81318,40.6483,0
            35.81322,40.6482,0
            35.81332,40.64805,0
            35.8134,40.64797,0
            35.81349,40.64788,0
            35.81361,40.64776,0
            35.81375,40.64764,0
            35.81377,40.64762,0
            35.81386,40.64754,0
            35.8136,40.64734,0
            35.81326,40.64709,0
            35.81289,40.64677,0
            35.81276,40.64663,0
            35.8126,40.64647,0
            35.8123,40.6461,0
            35.81218,40.64596,0
            35.81185,40.64565,0
            35.81178,40.64559,0
            35.81169,40.64551,0
            35.8115,40.64529,0
            35.81144,40.64522,0
            35.81098,40.64487,0
            35.81042,40.64457,0
            35.81032,40.64452,0
            35.80999,40.64432,0
            35.80959,40.64409,0
            35.80912,40.64384,0
            35.80896,40.64374,0
            35.80877,40.64361,0
            35.80856,40.64344,0
            35.80841,40.64328,0
            35.80838,40.64324,0
            35.80821,40.64304,0
            35.80805,40.64278,0
            35.80789,40.64244,0
            35.80788,40.64244,0
            35.80782,40.64227,0
            35.80782,40.64226,0
            35.80779,40.64209,0
            35.80778,40.64204,0
            35.80776,40.64191,0
            35.80774,40.64174,0
            35.80774,40.64173,0
            35.80773,40.64168,0
            35.80774,40.64155,0
            35.80775,40.64136,0
            35.80782,40.64104,0
            35.80788,40.64083,0
            35.80793,40.64067,0
            35.80794,40.64065,0
            35.80795,40.64062,0
            35.80799,40.64047,0
            35.80804,40.6403,0
            35.80805,40.64028,0
            35.80809,40.64012,0
            35.80816,40.63991,0
            35.8082,40.63976,0
            35.80824,40.63959,0
            35.80825,40.63958,0
            35.80834,40.63924,0
            35.80836,40.63917,0
            35.80844,40.63884,0
            35.80846,40.63879,0
            35.80863,40.63814,0
            35.80864,40.63814,0
            35.8088,40.63769,0
            35.80896,40.63733,0
            35.80911,40.6371,0
            35.80916,40.63703,0
            35.80916,40.63702,0
            35.80929,40.63686,0
            35.80933,40.63681,0
            35.80952,40.63657,0
            35.80991,40.63613,0
            35.80992,40.63611,0
            35.81012,40.63588,0
            35.81018,40.63581,0
            35.8103,40.63565,0
            35.81041,40.63551,0
            35.81042,40.6355,0
            35.8107,40.63519,0
            35.81072,40.63516,0
            35.81089,40.63498,0
            35.81099,40.63487,0
            35.81108,40.63476,0
            35.81126,40.63457,0
            35.8113,40.63453,0
            35.8114,40.63442,0
            35.81154,40.63428,0
            35.81158,40.63424,0
            35.81168,40.63413,0
            35.81176,40.63405,0
            35.81183,40.63399,0
            35.81203,40.63378,0
            35.81225,40.63356,0
            35.81271,40.6331,0
            35.81299,40.63284,0
            35.8135,40.63238,0
            35.81434,40.6316,0
            35.81455,40.6314,0
            35.8147,40.63127,0
            35.81478,40.63119,0
            35.81485,40.63113,0
            35.81515,40.63085,0
            35.81526,40.63075,0
            35.8153,40.63071,0
            35.81545,40.63057,0
            35.81566,40.63037,0
            35.81575,40.63029,0
            35.8159,40.63015,0
            35.81608,40.62998,0
            35.81642,40.62964,0
            35.81656,40.62951,0
            35.81707,40.62897,0
            35.81786,40.62813,0
            35.81788,40.62811,0
            35.81811,40.62793,0
            35.81852,40.62759,0
            35.81862,40.6275,0
            35.81884,40.62732,0
            35.81896,40.62723,0
            35.81904,40.62715,0
            35.81916,40.62704,0
            35.81923,40.62695,0
            35.81938,40.62677,0
            35.81944,40.62667,0
            35.8195,40.62657,0
            35.81952,40.6265,0
            35.81958,40.6263,0
            35.8196,40.6262,0
            35.81963,40.6261,0
            35.81964,40.62602,0
            35.81965,40.62588,0
            35.81964,40.62556,0
            35.81964,40.62555,0
            35.81963,40.62549,0
            35.81962,40.62532,0
            35.81962,40.62531,0
            35.81958,40.62506,0
            35.81952,40.62466,0
            35.8195,40.62453,0
            35.81948,40.62435,0
            35.81946,40.62423,0
            35.81946,40.62417,0
            35.81943,40.62399,0
            35.81933,40.62328,0
            35.81926,40.62275,0
            35.81919,40.62224,0
            35.81919,40.62221,0
            35.81911,40.62167,0
            35.81909,40.6215,0
            35.81905,40.62124,0
            35.81904,40.62114,0
            35.81901,40.62096,0
            35.81899,40.62081,0
            35.8189,40.62041,0
            35.81876,40.62011,0
            35.81865,40.61992,0
            35.81865,40.61991,0
            35.81858,40.61981,0
            35.81845,40.61965,0
            35.81841,40.61961,0
            35.81833,40.61953,0
            35.81803,40.6193,0
            35.81791,40.61923,0
            35.8178,40.61917,0
            35.81771,40.61913,0
            35.81738,40.619,0
            35.81669,40.61871,0
            35.81615,40.6185,0
            35.81603,40.61845,0
            35.81587,40.61837,0
            35.81565,40.61826,0
            35.81545,40.61816,0
            35.81501,40.61787,0
            35.81492,40.61782,0
            35.81483,40.61775,0
            35.81466,40.61763,0
            35.81454,40.61754,0
            35.81441,40.61744,0
            35.81438,40.6174,0
            35.81431,40.61733,0
            35.81422,40.61725,0
            35.81413,40.61716,0
            35.81406,40.61705,0
            35.81369,40.6165,0
            35.81353,40.61614,0
            35.81342,40.61583,0
            35.81337,40.61563,0
            35.81333,40.61548,0
            35.81326,40.61508,0
            35.8132,40.61475,0
            35.81319,40.61474,0
            35.81313,40.61439,0
            35.8131,40.61421,0
            35.81307,40.61403,0
            35.81297,40.61349,0
            35.81295,40.61338,0
            35.81293,40.6132,0
            35.81287,40.61284,0
            35.81279,40.61234,0
            35.81261,40.61114,0
            35.81257,40.61089,0
            35.81244,40.61019,0
            35.81232,40.60946,0
            35.8123,40.60937,0
            35.81221,40.60881,0
            35.81214,40.60835,0
            35.81212,40.60821,0
            35.81208,40.60801,0
            35.81205,40.60788,0
            35.812,40.60765,0
            35.81193,40.60721,0
            35.81191,40.60709,0
            35.8119,40.60703,0
            35.81181,40.6065,0
            35.81178,40.60632,0
            35.81173,40.60604,0
            35.81167,40.60571,0
            35.81157,40.60533,0
            35.81142,40.60495,0
            35.81135,40.60477,0
            35.81122,40.60448,0
            35.81083,40.60379,0
            35.81075,40.60365,0
            35.8106,40.60331,0
            35.81042,40.60294,0
            35.81025,40.60261,0
            35.81004,40.60228,0
            35.80986,40.60203,0
            35.80958,40.60173,0
            35.80907,40.60113,0
            35.80904,40.60107,0
            35.80904,40.60105,0
            35.80904,40.60102,0
            35.80905,40.60101,0
            35.80906,40.60098,0
            35.80908,40.60097,0
            35.80911,40.60096,0
            35.80914,40.60096,0
            35.80918,40.60096,0
            35.80922,40.60096,0
            35.80926,40.60098,0
            35.80931,40.60101,0
            35.80953,40.60128,0
            35.80988,40.60178,0
            35.81048,40.60258,0
            35.81067,40.60289,0
            35.81083,40.60314,0
            35.81104,40.60356,0
            35.81113,40.60374,0
            35.81126,40.60399,0
            35.81128,40.60405,0
            35.81137,40.60425,0
            35.81142,40.60438,0
            35.81149,40.60455,0
            35.81158,40.60478,0
            35.81171,40.60524,0
            35.81179,40.60554,0
            35.8118,40.60557,0
            35.81185,40.60575,0
            35.81196,40.60644,0
            35.81201,40.60678,0
            35.81229,40.60673,0
            35.81268,40.60664,0
            35.81284,40.6066,0
            35.81289,40.60659,0
            35.81292,40.60657,0
            35.81298,40.60653,0
            35.81304,40.60646,0
            35.81314,40.60634,0
            35.81323,40.60626,0
            35.81331,40.60621,0
            35.81336,40.60618,0
            35.81351,40.6061,0
            35.81385,40.60594,0
            35.81418,40.60581,0
            35.81447,40.6057,0
            35.81499,40.60576,0
            35.81521,40.60577,0
            35.81535,40.60576,0
            35.81543,40.60574,0
            35.81564,40.60569,0
            35.81575,40.60566,0
            35.81583,40.60564,0
            35.81587,40.60563,0
            35.8159,40.60561,0
            35.81589,40.60546,0
            35.81603,40.60544,0
            35.81618,40.60541,0
            35.81641,40.60538,0
            35.81657,40.60536,0
            35.81675,40.60535,0
            35.81693,40.60532,0
            35.81705,40.60531,0
            35.81721,40.60528,0
            35.81727,40.60526,0
            35.81735,40.60522,0
            35.81746,40.60519,0
            35.81759,40.60517,0
            35.81767,40.60515,0
            35.8177,40.60514,0
            35.81782,40.6051,0
            35.81788,40.60506,0
            35.81792,40.60504,0
            35.81799,40.60503,0
            35.8181,40.60503,0
            35.81824,40.60505,0
            35.81833,40.60507,0
            35.81838,40.60508,0
            35.81851,40.60511,0
            35.81856,40.60512,0
            35.81869,40.60515,0
            35.81885,40.6052,0
            35.81899,40.60524,0
            35.81901,40.60524,0
            35.81912,40.60524,0
            35.81925,40.60525,0
            35.81935,40.60525,0
            35.81954,40.60526,0
            35.81972,40.60525,0
            35.81966,40.60523,0
            35.8194,40.60512,0
            35.81923,40.60504,0
            35.8192,40.60502,0
            35.81902,40.60492,0
            35.81901,40.60492,0
            35.81892,40.60486,0
            35.81882,40.60481,0
            35.81877,40.60478,0
            35.81863,40.6047,0
            35.81856,40.60465,0
            35.81855,40.60464,0
            35.81853,40.60462,0
            35.81852,40.6046,0
            35.81851,40.60457,0
            35.8185,40.60455,0
            35.81851,40.60453,0
            35.81853,40.60448,0
            35.81857,40.60443,0
            35.81865,40.60437,0
            35.8187,40.60434,0
            35.81874,40.60432,0
            35.81881,40.6043,0
            35.81884,40.60429,0
            35.81899,40.60426,0
            35.81917,40.60424,0
            35.8194,40.60424,0
            35.81951,40.60422,0
            35.8196,40.60421,0
            35.81974,40.60418,0
            35.81977,40.60417,0
            35.81984,40.60415,0
            35.81989,40.60413,0
            35.81995,40.6041,0
            35.81997,40.6041,0
            35.82001,40.60406,0
            35.82003,40.60404,0
            35.82004,40.60403,0
            35.82006,40.60399,0
            35.82006,40.60398,0
            35.82005,40.60395,0
            35.82004,40.60393,0
            35.82003,40.60392,0
            35.82002,40.60391,0
            35.82,40.6039,0
            35.81997,40.60389,0
            35.81996,40.60388,0
            35.81992,40.60388,0
            35.81987,40.60388,0
            35.81985,40.60388,0
            35.81976,40.60387,0
            35.81975,40.60387,0
            35.81967,40.60385,0
            35.81951,40.60378,0
            35.81936,40.60367,0
            35.81921,40.60355,0
            35.81938,40.60343,0
            35.81953,40.60333,0
          </coordinates>
        </LineString>
      </Placemark>
      <Placemark>
        <name>Nokta 1</name>
        <styleUrl>#icon-1899-DB4436-nodesc</styleUrl>
        <Point>
          <coordinates>
            35.8085585,40.6554182,0
          </coordinates>
        </Point>
      </Placemark>
      <Placemark>
        <name>Nokta 2</name>
        <styleUrl>#icon-1899-DB4436-nodesc</styleUrl>
        <Point>
          <coordinates>
            35.8089586,40.6536604,0
          </coordinates>
        </Point>
      </Placemark>
      <Placemark>
        <name>Nokta 3</name>
        <styleUrl>#icon-1899-DB4436-nodesc</styleUrl>
        <Point>
          <coordinates>
            35.8126701,40.6539099,0
          </coordinates>
        </Point>
      </Placemark>
      <Placemark>
        <name>Nokta 4</name>
        <styleUrl>#icon-1899-DB4436-nodesc</styleUrl>
        <Point>
          <coordinates>
            35.8128226,40.6517085,0
          </coordinates>
        </Point>
      </Placemark>
      <Placemark>
        <name>Nokta 5</name>
        <styleUrl>#icon-1899-DB4436-nodesc</styleUrl>
        <Point>
          <coordinates>
            35.8137467,40.6476428,0
          </coordinates>
        </Point>
      </Placemark>
      <Placemark>
        <name>Koza, Başak Sk. No:11, 05100 Amasya Merkez/Amasya, Türkiye</name>
        <styleUrl>#icon-1899-DB4436-nodesc</styleUrl>
        <Point>
          <coordinates>
            35.8195262,40.6033314,0
          </coordinates>
        </Point>
      </Placemark>
    </Folder>
    <Folder>
      <name>Şeyhcui, Oniki Haziran Cd. No:1, 05100 Amasya Merkez/Amasya, Türkiye ile Nokta 7 arası yol tarifi</name>
      <Placemark>
        <name>Şeyhcui, Oniki Haziran Cd. No:1, 05100 Amasya Merkez/Amasya, Türkiye ile Nokta 7 arası yol tarifi</name>
        <styleUrl>#line-1267FF-5000-nodesc</styleUrl>
        <LineString>
          <tessellate>1</tessellate>
          <coordinates>
            35.80855,40.65548,0
            35.80814,40.65557,0
            35.80794,40.6556,0
            35.80757,40.65564,0
          </coordinates>
        </LineString>
      </Placemark>
      <Placemark>
        <name>Şeyhcui, Oniki Haziran Cd. No:1, 05100 Amasya Merkez/Amasya, Türkiye</name>
        <styleUrl>#icon-1899-DB4436-nodesc</styleUrl>
        <Point>
          <coordinates>
            35.8085544,40.6554752,0
          </coordinates>
        </Point>
      </Placemark>
      <Placemark>
        <name>Nokta 7</name>
        <styleUrl>#icon-1899-DB4436-nodesc</styleUrl>
        <Point>
          <coordinates>
            35.8075659,40.6556411,0
          </coordinates>
        </Point>
      </Placemark>
    </Folder>
    <Folder>
      <name>Şeyhcui, Türkistan Cd. No:20, 05100 Amasya Merkez/Amasya, Türkiye ile Nokta 7 arası yol tarifi</name>
      <Placemark>
        <name>Şeyhcui, Türkistan Cd. No:20, 05100 Amasya Merkez/Amasya, Türkiye ile Nokta 7 arası yol tarifi</name>
        <styleUrl>#line-1267FF-5000-nodesc</styleUrl>
        <LineString>
          <tessellate>1</tessellate>
          <coordinates>
            35.80642,40.6558,0
            35.80648,40.65579,0
            35.80683,40.65574,0
            35.80741,40.65566,0
            35.80757,40.65564,0
          </coordinates>
        </LineString>
      </Placemark>
      <Placemark>
        <name>Şeyhcui, Türkistan Cd. No:20, 05100 Amasya Merkez/Amasya, Türkiye</name>
        <styleUrl>#icon-1899-DB4436-nodesc</styleUrl>
        <Point>
          <coordinates>
            35.8064226,40.6558047,0
          </coordinates>
        </Point>
      </Placemark>
      <Placemark>
        <name>Nokta 7</name>
        <styleUrl>#icon-1899-DB4436-nodesc</styleUrl>
        <Point>
          <coordinates>
            35.8075659,40.6556411,0
          </coordinates>
        </Point>
      </Placemark>
    </Folder>
    <Folder>
      <name>Adsız katman</name>
    </Folder>
    <Folder>
      <name>Nokta 8 ile Nokta 9 arası yol tarifi</name>
      <Placemark>
        <name>Nokta 8 ile Nokta 9 arası yol tarifi</name>
        <styleUrl>#line-1267FF-5000-nodesc</styleUrl>
        <LineString>
          <tessellate>1</tessellate>
          <coordinates>
            35.8056,40.65596,0
            35.80575,40.65593,0
            35.80598,40.65588,0
            35.80638,40.65581,0
            35.80643,40.6558,0
          </coordinates>
        </LineString>
      </Placemark>
      <Placemark>
        <name>Nokta 8</name>
        <styleUrl>#icon-1899-DB4436-nodesc</styleUrl>
        <Point>
          <coordinates>
            35.8055971,40.6559588,0
          </coordinates>
        </Point>
      </Placemark>
      <Placemark>
        <name>Nokta 9</name>
        <styleUrl>#icon-1899-DB4436-nodesc</styleUrl>
        <Point>
          <coordinates>
            35.8064273,40.6558039,0
          </coordinates>
        </Point>
      </Placemark>
    </Folder>
    <Folder>
      <name>Adsız katman</name>
    </Folder>
    <Folder>
      <name>Adsız katman</name>
    </Folder>
    <Folder>
      <name>Şeyhcui, Türkistan Cd. No:62, 05100 Amasya Merkez/Amasya, Türkiye ile Otobüs Durağı, Şeyhcui, Amasya MYO, 05100 Amasya Merkez/Amasya, Türkiye arası yol tarifi</name>
      <Placemark>
        <name>Şeyhcui, Türkistan Cd. No:62, 05100 Amasya Merkez/Amasya, Türkiye ile Otobüs Durağı, Şeyhcui, Amasya MYO, 05100 Amasya Merkez/Amasya, Türkiye arası yol tarifi</name>
        <styleUrl>#line-1267FF-5000-nodesc</styleUrl>
        <LineString>
          <tessellate>1</tessellate>
          <coordinates>
            35.8056,40.65596,0
            35.8055,40.6558,0
            35.80529,40.65547,0
            35.80511,40.65517,0
            35.80498,40.65505,0
            35.80463,40.65449,0
            35.80458,40.65441,0
            35.80447,40.65419,0
            35.80443,40.65403,0
            35.80442,40.65396,0
            35.80442,40.65389,0
            35.80442,40.65381,0
            35.80442,40.65374,0
            35.80446,40.65342,0
            35.80448,40.65329,0
            35.80449,40.65325,0
            35.80452,40.65313,0
            35.8038,40.65296,0
            35.80372,40.65294,0
            35.80326,40.6528,0
            35.8032,40.65278,0
            35.80309,40.65273,0
            35.80279,40.65261,0
            35.80275,40.65259,0
            35.80243,40.65245,0
            35.80208,40.65229,0
            35.80177,40.65214,0
            35.80128,40.65189,0
            35.80096,40.65173,0
            35.80076,40.65164,0
            35.80066,40.65159,0
            35.80045,40.6515,0
            35.80024,40.65141,0
            35.80008,40.65134,0
            35.80001,40.65129,0
            35.79983,40.65123,0
            35.79934,40.65101,0
            35.79928,40.65099,0
            35.79923,40.65097,0
            35.79916,40.65094,0
            35.79889,40.65086,0
            35.79882,40.65084,0
            35.79879,40.65083,0
            35.79876,40.65082,0
            35.79874,40.6508,0
            35.79872,40.65079,0
            35.79852,40.65076,0
            35.79766,40.65054,0
            35.79739,40.65046,0
            35.79675,40.65024,0
            35.79611,40.65,0
            35.79599,40.64995,0
            35.79596,40.64994,0
            35.79589,40.64991,0
            35.79554,40.64977,0
            35.79528,40.64968,0
            35.79512,40.64962,0
            35.7949,40.64954,0
            35.79466,40.64945,0
            35.7945,40.6494,0
            35.79367,40.64913,0
            35.79353,40.64908,0
            35.79337,40.64903,0
            35.79331,40.64902,0
            35.79288,40.6489,0
            35.79248,40.6488,0
            35.7924,40.64879,0
            35.79232,40.64879,0
            35.79213,40.64878,0
            35.79143,40.64878,0
            35.79149,40.64889,0
            35.79151,40.64891,0
            35.79153,40.64894,0
            35.79156,40.64896,0
            35.79167,40.64904,0
            35.79171,40.64907,0
            35.79179,40.64916,0
            35.79181,40.64918,0
            35.79182,40.64921,0
            35.79183,40.64925,0
            35.79184,40.64927,0
            35.79183,40.64929,0
            35.79183,40.64931,0
            35.79181,40.64933,0
            35.79179,40.64935,0
            35.79165,40.64946,0
            35.79163,40.64948,0
            35.79158,40.64951,0
            35.79155,40.64952,0
            35.79152,40.64953,0
            35.79149,40.64954,0
            35.79144,40.64954,0
            35.7914,40.64954,0
            35.79135,40.64954,0
            35.79129,40.64953,0
            35.79124,40.64953,0
            35.79118,40.64951,0
            35.79112,40.64949,0
            35.79107,40.64946,0
            35.79103,40.64944,0
            35.79099,40.64942,0
            35.79095,40.64939,0
            35.79089,40.64934,0
          </coordinates>
        </LineString>
      </Placemark>
      <Placemark>
        <name>Şeyhcui, Türkistan Cd. No:62, 05100 Amasya Merkez/Amasya, Türkiye</name>
        <styleUrl>#icon-1899-DB4436-nodesc</styleUrl>
        <Point>
          <coordinates>
            35.8055971,40.6559588,0
          </coordinates>
        </Point>
      </Placemark>
      <Placemark>
        <name>Nokta 9</name>
        <styleUrl>#icon-1899-DB4436-nodesc</styleUrl>
        <Point>
          <coordinates>
            35.8046263,40.654488,0
          </coordinates>
        </Point>
      </Placemark>
      <Placemark>
        <name>Şeyhcui, Muhsin Yazıcıoğlu Cd. No:18, 05100 Amasya Merkez/Amasya, Türkiye</name>
        <styleUrl>#icon-1899-DB4436-nodesc</styleUrl>
        <Point>
          <coordinates>
            35.8045222,40.6531322,0
          </coordinates>
        </Point>
      </Placemark>
      <Placemark>
        <name>Otobüs Durağı, Şeyhcui, Amasya MYO, 05100 Amasya Merkez/Amasya, Türkiye</name>
        <styleUrl>#icon-1899-DB4436-nodesc</styleUrl>
        <Point>
          <coordinates>
            35.7908947,40.6493406,0
          </coordinates>
        </Point>
      </Placemark>
    </Folder>
  </Document>
</kml>
